[{"OBJECT_NAME":"STARLINK-34368","OBJECT_ID":"2025-123W","EPOCH":"2026-03-09T17:48:30.209184","MEAN_MOTION":14.98333722,"ECCENTRICITY":0.00035386,"INCLINATION":70.0018,"RA_OF_ASC_NODE":194.4244,"ARG_OF_PERICENTER":273.8468,"MEAN_ANOMALY":86.2287,"EPHEMERIS_TYPE":0,"CLASSIFICATION_TYPE":"U","NORAD_CAT_ID":64311,"ELEMENT_SET_NO":999,"REV_AT_EPOCH":4162,"BSTAR":0.00080124843,"MEAN_MOTION_DOT":9.482e-5,"MEAN_MOTION_DDOT":0},{"OBJECT_NAME":"COSMOS 249 DEB","OBJECT_ID":"1968-091S","EPOCH":"2026-03-09T23:11:16.315584","MEAN_MOTION":14.62767046,"ECCENTRICITY":0.02830409,"INCLINATION":62.2933,"RA_OF_ASC_NODE":296.5114,"ARG_OF_PERICENTER":188.6799,"MEAN_ANOMALY":170.9327,"EPHEMERIS_TYPE":0,"CLASSIFICATION_TYPE":"U","NORAD_CAT_ID":3584,"ELEMENT_SET_NO":999,"REV_AT_EPOCH":84837,"BSTAR":0.0011832557,"MEAN_MOTION_DOT":0.00010675,"MEAN_MOTION_DDOT":0}]
